BEIJING 1               
1 28890U 05043A   22247.55120151  .00000140  00000+0  37646-4 0  9990
2 28890  98.1276   8.5393 0013977 287.9173  72.0522 14.61483540898698
HJ-1A                   
1 33320U 08041A   22247.56872254  .00000169  00000+0  30258-4 0  9997
2 33320  97.6735 276.9006 0020587 338.7721  21.2634 14.77900322754079
HJ-1B                   
1 33321U 08041B   22247.51931686  .00000477  00000+0  72645-4 0  9996
2 33321  97.6899 280.5777 0034257 355.7498   4.3431 14.77845773754060
YAOGAN 4                
1 33446U 08061A   22247.41523209  .00000289  00000+0  47584-4 0  9998
2 33446  97.8197 185.1557 0014901 235.9453 124.0344 14.77446600741257
DEIMOS-1                
1 35681U 09041A   22247.31236002  .00000137  00000+0  29044-4 0  9994
2 35681  97.7070  94.3118 0001641  29.3466 330.7823 14.72097271703379
UK-DMC 2                
1 35683U 09041C   22247.30393228  .00000225  00000+0  43638-4 0  9992
2 35683  97.7042  56.1364 0001661  67.3498 292.7891 14.71474189703107
RISAT 1                 
1 38248U 12017A   22247.54148766  .00002496  00000+0  14773-3 0  9999
2 38248  97.5536 258.0606 0003945  14.3744 345.7598 15.12346571570775
DMC3-FM1                
1 40715U 15032A   22247.52158980  .00000211  00000+0  33040-4 0  9990
2 40715  97.8353 132.7457 0004464 262.6164  97.4543 14.82177061385003
DMC3-FM2                
1 40716U 15032B   22247.54449968  .00000199  00000+0  31521-4 0  9999
2 40716  97.8393 133.4500 0006491 266.5016  93.5442 14.82169357385011
DMC3-FM3                
1 40717U 15032C   22247.56610467  .00000210  00000+0  32876-4 0  9994
2 40717  97.8428 134.4169 0008382 262.9628  97.0619 14.82197217385014
